[{"OBJECT_NAME":"SORCE","OBJECT_ID":"2003-004A","EPOCH":"2026-03-09T10:24:05.899968","MEAN_MOTION":15.03094555,"ECCENTRICITY":0.00159303,"INCLINATION":39.9899,"RA_OF_ASC_NODE":110.5611,"ARG_OF_PERICENTER":53.0009,"MEAN_ANOMALY":307.2241,"EPHEMERIS_TYPE":0,"CLASSIFICATION_TYPE":"U","NORAD_CAT_ID":27651,"ELEMENT_SET_NO":999,"REV_AT_EPOCH":25688,"BSTAR":0.00029572763,"MEAN_MOTION_DOT":3.92e-5,"MEAN_MOTION_DDOT":0},{"OBJECT_NAME":"SL-3 DEB","OBJECT_ID":"1983-075D","EPOCH":"2026-03-09T23:36:44.953632","MEAN_MOTION":15.09588045,"ECCENTRICITY":0.00266029,"INCLINATION":97.8881,"RA_OF_ASC_NODE":62.5591,"ARG_OF_PERICENTER":309.2805,"MEAN_ANOMALY":113.3567,"EPHEMERIS_TYPE":0,"CLASSIFICATION_TYPE":"U","NORAD_CAT_ID":14229,"ELEMENT_SET_NO":999,"REV_AT_EPOCH":31646,"BSTAR":0.00023866318,"MEAN_MOTION_DOT":3.795e-5,"MEAN_MOTION_DDOT":0}]
